BEESAT-4                
1 41619U 16040W   23008.88454448  .00035613  00000+0  92460-3 0  9991
2 41619  97.1883  59.6051 0009084  96.2638 263.9642 15.38848032352228
CAS-2T & KS-1Q          
1 41847U 16066G   23009.12202356  .00001198  00000+0  18986-3 0  9991
2 41847  98.5266  78.3470 0361404 314.4861  42.7295 14.39006691323923
NAYIF-1 (EO-88)         
1 42017U 17008BX  23008.90624048  .00046220  00000+0  10058-2 0  9995
2 42017  97.2428  77.8565 0002928 213.9185 146.1877 15.44160545328660
ZHUHAI-1 02 (CAS-4B)    
1 42759U 17034B   23009.20638063  .00008579  00000+0  47716-3 0  9990
2 42759  43.0175 277.1763 0009248 159.0270   0.4528 15.13887754307513
ZHUHAI-1 01 (CAS-4A)    
1 42761U 17034D   23009.22591633  .00007680  00000+0  42742-3 0  9992
2 42761  43.0185 275.7016 0009538 160.6026 336.2971 15.13975456307521
MAX VALIER SAT          
1 42778U 17036P   23009.04456208  .00019338  00000+0  63977-3 0  9996
2 42778  97.1799  48.2878 0008609 322.3089  37.7549 15.31338405308312
RADFXSAT (FOX-1B)       
1 43017U 17073E   23009.14052835  .00006784  00000+0  49911-3 0  9996
2 43017  97.6517 259.8471 0241090 233.1090 124.7813 14.83294945277586
FOX-1D (AO-92)          
1 43137U 18004AC  23008.44511361  .00020273  00000+0  60495-3 0  9999
2 43137  97.3492  87.1624 0007041   4.8606 355.2704 15.34640793277721
DIWATA-2B               
1 43678U 18084H   23009.15599083  .00002049  00000+0  20460-3 0  9992
2 43678  97.9962 150.2641 0009178 334.9375  25.1404 14.92627191228538
ES'HAIL 2               
1 43700U 18090A   23008.83432976  .00000157  00000+0  00000+0 0  9998
2 43700   0.0193  75.7708 0002059 251.7999 106.7079  1.00275038 15339
FOX-1CLIFF (AO-95)      
1 43770U 18099N   23009.13533374  .00005601  00000+0  48258-3 0  9992
2 43770  97.5980  75.0034 0012289 311.1748  48.8414 14.97666099223785
ITASAT 1                
1 43786U 18099AE  23008.91775251  .00004596  00000+0  39714-3 0  9995
2 43786  97.5988  75.8060 0013055 301.0409  58.9531 14.97634587223791
JY1SAT (JO-97)          
1 43803U 18099AX  23008.91820514  .00005942  00000+0  50183-3 0  9997
2 43803  97.5947  75.6520 0012701 298.7609  61.2337 14.98414175223821
UWE-4                   
1 43880U 18111E   23008.69755194  .00006365  00000+0  52045-3 0  9992
2 43880  97.6620 276.4312 0012491   6.2191 353.9185 14.99638858220443
NEXUS (FO-99)           
1 43937U 19003F   23008.53384408  .00025376  00000+0  69323-3 0  9995
2 43937  97.1088  39.4272 0018835 133.4045 226.8772 15.37201345221407
PSAT2 (NO-104)          
1 44354U 19036R   23008.75528349  .00275903  17157-4  89376-3 0  9992
2 44354  28.5156 163.1962 0103982 175.9856 184.1606 15.81013619196660
JAISAT-1                
1 44419U 19038F   23008.36020911  .00015369  00000+0  68102-3 0  9991
2 44419  97.6603 345.9700 0018821 136.8609 223.4105 15.21557940194163
DUCHIFAT-3              
1 44854U 19089C   23009.23807269  .00007700  00000+0  56773-3 0  9997
2 44854  36.9657 318.9327 0005726  92.9401  50.1867 15.02917054168883
CAS-6 (TIANQIN 1)       
1 44881U 19093C   23009.25748517  .00001066  00000+0  14075-3 0  9992
2 44881  97.8776  90.3670 0013690 233.5587 126.4382 14.82020918165258
RS-44 & BREEZE-KM R/B   
1 44909U 19096E   23008.49700229  .00000026  00000+0  61348-4 0  9990
2 44909  82.5214  94.0624 0217284 200.0606 159.1857 12.79717474141734
ORBITAL FACTORY 2 (OF-2)
1 45113U 19071C   23008.29845138  .00103989  00000+0  10775-2 0  9996
2 45113  51.6326 121.0884 0007203 230.6829 129.3528 15.63839041165197
HUSKYSAT-1 (HO-107)     
1 45119U 19071J   23009.00720746  .00088539  00000+0  10755-2 0  9990
2 45119  51.6332 120.5385 0007271 222.6413 137.4017 15.59804009165256
BY70-2                  
1 45857U 20042B   23009.26380438  .00013750  00000+0  16871-2 0  9995
2 45857  97.9418  89.4031 0010336 164.5173 195.6446 14.83175979135923
SALSAT                  
1 46495U 20068K   23008.80733535  .00004754  00000+0  33271-3 0  9999
2 46495  97.7527 315.5477 0014957 304.6716  55.3100 15.05672320125072
BY70-3                  
1 46839U 20079N   23009.18290441  .00077450  00000+0  10750-2 0  9998
2 46839  97.1757  84.9656 0003598 308.2295 109.6575 15.56770238122068
RADFXSAT-2 (AO-109)     
1 47311U 21002C   23008.33498103  .00017870  00000+0  61043-3 0  9994
2 47311  60.6850 308.7951 0038722  95.1642 265.3869 15.29732780109750
UVSQ-SAT                
1 47438U 21006AB  23008.88858384  .00012767  00000+0  61750-3 0  9994
2 47438  97.4108  68.7236 0009647 283.1543  76.8614 15.18691610108426
DIY-1 (ARDUIQUBE)       
1 47963U 21022AH  23009.11896643  .00047044  00000+0  19856-2 0  9997
2 47963  97.5170 273.9977 0015124 132.0590 228.1936 15.23018881 98136
XW-3 (CAS-9)            
1 50466U 21131B   23009.19326900  .00000473  00000+0  16898-3 0  9991
2 50466  98.5656  91.1952 0003700 247.5876 112.4920 14.38616017 54496
TEVEL-3                 
1 50988U 22002E   23009.17219109  .00014732  00000+0  72628-3 0  9994
2 50988  97.4581  77.8669 0010320  72.4966 312.9327 15.17987848 54586
TEVEL-8                 
1 50989U 22002F   23009.11895285  .00014496  00000+0  71596-3 0  9994
2 50989  97.4598  77.8569 0010308  73.6787 313.1741 15.17927628 54576
TEVEL-5                 
1 50998U 22002Q   23009.12417494  .00014956  00000+0  72497-3 0  9999
2 50998  97.4578  78.0505 0011771  68.6729 321.1371 15.18559538 54594
TEVEL-6                 
1 50999U 22002R   23009.12308966  .00014951  00000+0  72459-3 0  9996
2 50999  97.4575  78.0458 0011600  69.0521 320.6672 15.18567031 54590
TEVEL-1                 
1 51013U 22002AF  23009.17785907  .00014778  00000+0  72920-3 0  9993
2 51013  97.4575  77.8357 0010092  72.9346 311.1140 15.17957944 54584
TEVEL-7                 
1 51062U 22002CG  23009.12149470  .00014551  00000+0  71864-3 0  9996
2 51062  97.4602  77.8391 0010216  72.7203 316.8543 15.17929299 54575
TEVEL-4                 
1 51063U 22002CH  23009.13359591  .00014479  00000+0  71555-3 0  9991
2 51063  97.4595  77.8423 0010222  73.5737  10.1351 15.17907897 54572
TEVEL-2                 
1 51069U 22002CP  23009.17393211  .00014796  00000+0  72946-3 0  9995
2 51069  97.4578  77.8471 0010255  74.0473 310.8469 15.17985406 54584
GREENCUBE               
1 53106U 22080B   22354.08419093 -.00000003  00000+0  00000+0 0  9999
2 53106  70.1702  21.9397 0008914 226.9685 182.2049  6.42557326 10248
YUZGU 9 (RS3S)          
1 53308U 98067TT  23009.07273730  .00359949  00000+0  15296-2 0  9995
2 53308  51.6316  22.6238 0005964  37.6503 322.4917 15.83734589 26845
YUZGU 7 (RS1S)          
1 53309U 98067TU  23009.09006444  .00416471  00000+0  16061-2 0  9999
2 53309  51.6303  21.9731 0006474  39.0412 321.1058 15.85621044 26805
YUZGU 11 (RS5S)         
1 53310U 98067TV  23009.06879208  .00381949  00000+0  15895-2 0  9999
2 53310  51.6330  22.5987 0005880  34.8624 325.2764 15.84120676 26820
YUZGU 12 (RS6S)         
1 53311U 98067TW  23009.10368487  .00479125  00000+0  16528-2 0  9995
2 53311  51.6278  21.3032 0006301  45.3792 314.7725 15.87756599 26868
TSIOLKOVSKY-RYAZAN 1 (*)
1 53312U 98067TX  23009.29209610  .00343144  00000+0  13793-2 0  9990
2 53312  51.6295  21.0792 0006452  38.4956 321.6506 15.84940766 26828
TSIOLKOVSKY-RYAZAN 2 (*)
1 53313U 98067TY  23009.09531797  .00399886  00000+0  15901-2 0  9990
2 53313  51.6317  22.0224 0006570  40.0483 320.1004 15.85024509 26848
YUZGU 10 (RS4S)         
1 53321U 98067TZ  23009.11654120  .00397745  00000+0  16333-2 0  9990
2 53321  51.6326  22.1647 0006111  37.3892 322.7536 15.84360019 26847
RS29S (SXC3-2110 CYCLO*)
1 53373U 22096D   23009.16751240  .00021462  00000+0  77468-3 0  9999
2 53373  97.4281 274.7655 0002549  53.7738 105.8832 15.28515880 23312
RS32S (SXC3-212 MONITO*)
1 53374U 22096E   23009.15598252  .00019058  00000+0  68983-3 0  9991
2 53374  97.4281 274.7651 0002319  44.9997  94.7189 15.28450663 23311
RS34S (SXC3-218 KUZBAS*)
1 53375U 22096F   23009.24197818  .00017107  00000+0  62974-3 0  9992
2 53375  97.4272 274.8017 0002424  44.7204  79.7961 15.27918221 23325
RS23S (SXC3-21 UTMN)    
1 53376U 22096G   23009.30636784  .00017808  00000+0  65265-3 0  9994
2 53376  97.4286 274.8789 0002436  40.7456 108.1917 15.28054459 23339
RS28S (SXC3-214 MIET-A*)
1 53377U 22096H   23009.17867428  .00016884  00000+0  62142-3 0  9995
2 53377  97.4280 274.7514 0002295  42.7674 115.1853 15.27925341 23317
RS26S (KAI-1)           
1 53378U 22096J   23009.18908800  .00014609  00000+0  54336-3 0  9996
2 53378  97.4281 274.7336 0002028  38.2765 116.6701 15.27612306 23318
RS19S (SXC3-219 ISOI)   
1 53381U 22096M   23009.19532394  .00017154  00000+0  62113-3 0  9992
2 53381  97.4283 274.8764 0002069 274.8983 238.7649 15.28460807 23321
RS21S (CUBESX-HSE-2)    
1 53383U 22096P   23009.11680267  .00017470  00000+0  63100-3 0  9997
2 53383  97.4283 274.8121 0002287 277.9153 189.9603 15.28538314 23310
RS30S (SXC3-217 SIREN)  
1 53384U 22096Q   23009.25804892  .00016178  00000+0  58928-3 0  9991
2 53384  97.4290 274.9331 0002244 271.3604 207.7989 15.28279169 23333
RS20S (GEOSCAN-EDELVEIS)
1 53385U 22096R   23009.06616088  .00022139  00000+0  77439-3 0  9991
2 53385  97.4282 274.8760 0002517 280.4940 192.5270 15.29539538 23342
RS33S (SXC3-215 VIZARD) 
1 53386U 22096S   23009.14415431  .00025706  00000+0  87064-3 0  9998
2 53386  97.4273 275.0826 0003099 277.0562 215.0449 15.30556034 23359
CAS-5A (FO-118)         
1 54684U 22167C   23009.24107965  .00010264  00000+0  64698-3 0  9991
2 54684  97.5393 148.7010 0015122 157.4867 321.0988 15.09232251  4662
CAS-10                  
1 54816U 21035C   23009.36327969  .00136694  00000+0  13285-2 0  9993
2 54816  41.4775  43.4359 0004892 357.1083   2.9711 15.65062377  3366
